{
  "type": "FeatureCollection",
  "features": [
    {
      "type": "Feature",
      "properties": {
        "norad_id": 66631,
        "name": "STARLINK-35965",
        "group": "last-30-days",
        "lat": -1.0344629628207338,
        "lon": -11.535675456225421,
        "alt_km": 419.97743474971867,
        "timestamp": "2025-12-16T19:34:23.017347+00:00",
        "meta_object_name": "STARLINK-35965",
        "meta_object_id": "2025-271Q",
        "meta_epoch": "2025-12-15T22:00:01.999584",
        "meta_mean_motion": 15.49257918,
        "meta_eccentricity": 9.731e-05,
        "meta_inclination": 53.159,
        "meta_ra_of_asc_node": 171.9879,
        "meta_arg_of_pericenter": 43.9214,
        "meta_mean_anomaly": 160.9736,
        "meta_ephemeris_type": 0,
        "meta_classification_type": "U",
        "meta_norad_cat_id": 66631,
        "meta_element_set_no": 999,
        "meta_rev_at_epoch": 475,
        "meta_bstar": 0.0014267995,
        "meta_mean_motion_dot": 0.00079573,
        "meta_mean_motion_ddot": 0,
        "tle_line1": "1 66631U 25271Q   25349.91668981  .00079573  00000+0  14268-2 0  9993",
        "tle_line2": "2 66631  53.1590 171.9879 0000973  43.9214 160.9736 15.49257918  4750"
      },
      "geometry": {
        "type": "Point",
        "coordinates": [
          -11.535675456225421,
          -1.0344629628207338
        ]
      }
    },
    {
      "type": "Feature",
      "properties": {
        "norad_id": 66632,
        "name": "STARLINK-35973",
        "group": "last-30-days",
        "lat": 47.1272848399218,
        "lon": -66.03826152289795,
        "alt_km": 439.83165714678216,
        "timestamp": "2025-12-16T19:34:23.017357+00:00",
        "meta_object_name": "STARLINK-35973",
        "meta_object_id": "2025-271R",
        "meta_epoch": "2025-12-15T22:00:01.999584",
        "meta_mean_motion": 15.39561952,
        "meta_eccentricity": 0.00014002,
        "meta_inclination": 53.1591,
        "meta_ra_of_asc_node": 172.0594,
        "meta_arg_of_pericenter": 85.8152,
        "meta_mean_anomaly": 82.9379,
        "meta_ephemeris_type": 0,
        "meta_classification_type": "U",
        "meta_norad_cat_id": 66632,
        "meta_element_set_no": 999,
        "meta_rev_at_epoch": 469,
        "meta_bstar": 0.0018696989,
        "meta_mean_motion_dot": 0.00074982,
        "meta_mean_motion_ddot": 0,
        "tle_line1": "1 66632U 25271R   25349.91668981  .00074982  00000+0  18697-2 0  9993",
        "tle_line2": "2 66632  53.1591 172.0594 0001400  85.8152  82.9379 15.39561952  4694"
      },
      "geometry": {
        "type": "Point",
        "coordinates": [
          -66.03826152289795,
          47.1272848399218
        ]
      }
    },
    {
      "type": "Feature",
      "properties": {
        "norad_id": 66633,
        "name": "STARLINK-35948",
        "group": "last-30-days",
        "lat": 46.234625626355786,
        "lon": -63.69699132032776,
        "alt_km": 440.172298153303,
        "timestamp": "2025-12-16T19:34:23.017398+00:00",
        "meta_object_name": "STARLINK-35948",
        "meta_object_id": "2025-271S",
        "meta_epoch": "2025-12-15T22:00:01.999584",
        "meta_mean_motion": 15.39560694,
        "meta_eccentricity": 0.00011087,
        "meta_inclination": 53.1591,
        "meta_ra_of_asc_node": 172.0545,
        "meta_arg_of_pericenter": 84.6178,
        "meta_mean_anomaly": 85.9826,
        "meta_ephemeris_type": 0,
        "meta_classification_type": "U",
        "meta_norad_cat_id": 66633,
        "meta_element_set_no": 999,
        "meta_rev_at_epoch": 475,
        "meta_bstar": 0.0018293175,
        "meta_mean_motion_dot": 0.00073335,
        "meta_mean_motion_ddot": 0,
        "tle_line1": "1 66633U 25271S   25349.91668981  .00073335  00000+0  18293-2 0  9997",
        "tle_line2": "2 66633  53.1591 172.0545 0001108  84.6178  85.9826 15.39560694  4750"
      },
      "geometry": {
        "type": "Point",
        "coordinates": [
          -63.69699132032776,
          46.234625626355786
        ]
      }
    },
    {
      "type": "Feature",
      "properties": {
        "norad_id": 66634,
        "name": "STARLINK-35967",
        "group": "last-30-days",
        "lat": 30.35765572348175,
        "lon": -38.27959854729241,
        "alt_km": 446.73508518881044,
        "timestamp": "2025-12-16T19:34:23.017409+00:00",
        "meta_object_name": "STARLINK-35967",
        "meta_object_id": "2025-271T",
        "meta_epoch": "2025-12-15T22:00:01.999584",
        "meta_mean_motion": 15.43039979,
        "meta_eccentricity": 0.00013678,
        "meta_inclination": 53.1596,
        "meta_ra_of_asc_node": 172.0102,
        "meta_arg_of_pericenter": 88.535,
        "meta_mean_anomaly": 104.0974,
        "meta_ephemeris_type": 0,
        "meta_classification_type": "U",
        "meta_norad_cat_id": 66634,
        "meta_element_set_no": 999,
        "meta_rev_at_epoch": 468,
        "meta_bstar": -0.063047949,
        "meta_mean_motion_dot": -0.02500155,
        "meta_mean_motion_ddot": 0,
        "tle_line1": "1 66634U 25271T   25349.91668981 -.02500155  00000+0 -63048-1 0  9994",
        "tle_line2": "2 66634  53.1596 172.0102 0001367  88.5350 104.0974 15.43039979  4688"
      },
      "geometry": {
        "type": "Point",
        "coordinates": [
          -38.27959854729241,
          30.35765572348175
        ]
      }
    },
    {
      "type": "Feature",
      "properties": {
        "norad_id": 66635,
        "name": "STARLINK-35955",
        "group": "last-30-days",
        "lat": -1.2655130651983344,
        "lon": -11.364120010968524,
        "alt_km": 432.4197049133818,
        "timestamp": "2025-12-16T19:34:23.017421+00:00",
        "meta_object_name": "STARLINK-35955",
        "meta_object_id": "2025-271U",
        "meta_epoch": "2025-12-15T22:00:01.999584",
        "meta_mean_motion": 15.4904059,
        "meta_eccentricity": 8.807e-05,
        "meta_inclination": 53.159,
        "meta_ra_of_asc_node": 171.9709,
        "meta_arg_of_pericenter": 46.9243,
        "meta_mean_anomaly": 165.5785,
        "meta_ephemeris_type": 0,
        "meta_classification_type": "U",
        "meta_norad_cat_id": 66635,
        "meta_element_set_no": 999,
        "meta_rev_at_epoch": 475,
        "meta_bstar": -0.041636684,
        "meta_mean_motion_dot": -0.02043444,
        "meta_mean_motion_ddot": 0,
        "tle_line1": "1 66635U 25271U   25349.91668981 -.02043444  00000+0 -41637-1 0  9998",
        "tle_line2": "2 66635  53.1590 171.9709 0000880  46.9243 165.5785 15.49040590  4759"
      },
      "geometry": {
        "type": "Point",
        "coordinates": [
          -11.364120010968524,
          -1.2655130651983344
        ]
      }
    },
    {
      "type": "Feature",
      "properties": {
        "norad_id": 66636,
        "name": "STARLINK-35968",
        "group": "last-30-days",
        "lat": 11.110812263005526,
        "lon": -20.74998040907494,
        "alt_km": 440.43428126787603,
        "timestamp": "2025-12-16T19:34:23.017433+00:00",
        "meta_object_name": "STARLINK-35968",
        "meta_object_id": "2025-271V",
        "meta_epoch": "2025-12-15T22:00:01.999584",
        "meta_mean_motion": 15.45429038,
        "meta_eccentricity": 0.00014213,
        "meta_inclination": 53.1587,
        "meta_ra_of_asc_node": 171.9783,
        "meta_arg_of_pericenter": 80.3354,
        "meta_mean_anomaly": 128.1895,
        "meta_ephemeris_type": 0,
        "meta_classification_type": "U",
        "meta_norad_cat_id": 66636,
        "meta_element_set_no": 999,
        "meta_rev_at_epoch": 475,
        "meta_bstar": -0.045926283,
        "meta_mean_motion_dot": -0.01992679,
        "meta_mean_motion_ddot": 0,
        "tle_line1": "1 66636U 25271V   25349.91668981 -.01992679  00000+0 -45926-1 0  9996",
        "tle_line2": "2 66636  53.1587 171.9783 0001421  80.3354 128.1895 15.45429038  4756"
      },
      "geometry": {
        "type": "Point",
        "coordinates": [
          -20.74998040907494,
          11.110812263005526
        ]
      }
    },
    {
      "type": "Feature",
      "properties": {
        "norad_id": 66637,
        "name": "STARLINK-35953",
        "group": "last-30-days",
        "lat": -10.19219894212443,
        "lon": -4.589576798455973,
        "alt_km": 421.27723823768974,
        "timestamp": "2025-12-16T19:34:23.017449+00:00",
        "meta_object_name": "STARLINK-35953",
        "meta_object_id": "2025-271W",
        "meta_epoch": "2025-12-15T22:00:01.999584",
        "meta_mean_motion": 15.49300512,
        "meta_eccentricity": 9.931e-05,
        "meta_inclination": 53.159,
        "meta_ra_of_asc_node": 171.9629,
        "meta_arg_of_pericenter": 44.7307,
        "meta_mean_anomaly": 171.6474,
        "meta_ephemeris_type": 0,
        "meta_classification_type": "U",
        "meta_norad_cat_id": 66637,
        "meta_element_set_no": 999,
        "meta_rev_at_epoch": 475,
        "meta_bstar": 0.00059575825,
        "meta_mean_motion_dot": 0.00032815,
        "meta_mean_motion_ddot": 0,
        "tle_line1": "1 66637U 25271W   25349.91668981  .00032815  00000+0  59576-3 0  9999",
        "tle_line2": "2 66637  53.1590 171.9629 0000993  44.7307 171.6474 15.49300512  4750"
      },
      "geometry": {
        "type": "Point",
        "coordinates": [
          -4.589576798455973,
          -10.19219894212443
        ]
      }
    }
  ]
}